{
  "type": "FeatureCollection",
  "features": [
    {
      "type": "Feature",
      "properties": {
        "norad_id": 66442,
        "name": "STARLINK-34724",
        "group": "last-30-days",
        "lat": 36.75717760885528,
        "lon": 148.9930003642569,
        "alt_km": 410.16547230450124,
        "timestamp": "2025-12-04T10:51:48.875496+00:00",
        "meta_object_name": "STARLINK-34724",
        "meta_object_id": "2025-259W",
        "meta_epoch": "2025-12-04T04:00:03.000096",
        "meta_mean_motion": 15.50647806,
        "meta_eccentricity": 0.0001504,
        "meta_inclination": 43.0005,
        "meta_ra_of_asc_node": 97.3882,
        "meta_arg_of_pericenter": 267.6145,
        "meta_mean_anomaly": 355.6742,
        "meta_ephemeris_type": 0,
        "meta_classification_type": "U",
        "meta_norad_cat_id": 66442,
        "meta_element_set_no": 999,
        "meta_rev_at_epoch": 490,
        "meta_bstar": -0.0028937,
        "meta_mean_motion_dot": -0.00166943,
        "meta_mean_motion_ddot": 0,
        "tle_line1": "1 66442U 25259W   25338.16670139 -.00166943  00000+0 -28937-2 0  9990",
        "tle_line2": "2 66442  43.0005  97.3882 0001504 267.6145 355.6742 15.50647806  4901"
      },
      "geometry": {
        "type": "Point",
        "coordinates": [
          148.9930003642569,
          36.75717760885528
        ]
      }
    },
    {
      "type": "Feature",
      "properties": {
        "norad_id": 66443,
        "name": "STARLINK-35219",
        "group": "last-30-days",
        "lat": 37.51959484464422,
        "lon": 151.19934458780514,
        "alt_km": 410.03513497128915,
        "timestamp": "2025-12-04T10:51:48.875506+00:00",
        "meta_object_name": "STARLINK-35219",
        "meta_object_id": "2025-259X",
        "meta_epoch": "2025-12-04T04:00:03.000096",
        "meta_mean_motion": 15.50657087,
        "meta_eccentricity": 0.000141,
        "meta_inclination": 43.0005,
        "meta_ra_of_asc_node": 97.3836,
        "meta_arg_of_pericenter": 262.6543,
        "meta_mean_anomaly": 2.5493,
        "meta_ephemeris_type": 0,
        "meta_classification_type": "U",
        "meta_norad_cat_id": 66443,
        "meta_element_set_no": 999,
        "meta_rev_at_epoch": 479,
        "meta_bstar": -0.0031438,
        "meta_mean_motion_dot": -0.00181079,
        "meta_mean_motion_ddot": 0,
        "tle_line1": "1 66443U 25259X   25338.16670139 -.00181079  00000+0 -31438-2 0  9998",
        "tle_line2": "2 66443  43.0005  97.3836 0001410 262.6543   2.5493 15.50657087  4794"
      },
      "geometry": {
        "type": "Point",
        "coordinates": [
          151.19934458780514,
          37.51959484464422
        ]
      }
    },
    {
      "type": "Feature",
      "properties": {
        "norad_id": 66444,
        "name": "STARLINK-35360",
        "group": "last-30-days",
        "lat": 39.54594092606782,
        "lon": 158.07690831916244,
        "alt_km": 409.7914919930827,
        "timestamp": "2025-12-04T10:51:48.875516+00:00",
        "meta_object_name": "STARLINK-35360",
        "meta_object_id": "2025-259Y",
        "meta_epoch": "2025-12-04T04:00:03.000096",
        "meta_mean_motion": 15.50652306,
        "meta_eccentricity": 0.000149,
        "meta_inclination": 43.0005,
        "meta_ra_of_asc_node": 97.3682,
        "meta_arg_of_pericenter": 263.966,
        "meta_mean_anomaly": 6.9916,
        "meta_ephemeris_type": 0,
        "meta_classification_type": "U",
        "meta_norad_cat_id": 66444,
        "meta_element_set_no": 999,
        "meta_rev_at_epoch": 490,
        "meta_bstar": -0.0029894,
        "meta_mean_motion_dot": -0.00172363,
        "meta_mean_motion_ddot": 0,
        "tle_line1": "1 66444U 25259Y   25338.16670139 -.00172363  00000+0 -29894-2 0  9998",
        "tle_line2": "2 66444  43.0005  97.3682 0001490 263.9660   6.9916 15.50652306  4906"
      },
      "geometry": {
        "type": "Point",
        "coordinates": [
          158.07690831916244,
          39.54594092606782
        ]
      }
    },
    {
      "type": "Feature",
      "properties": {
        "norad_id": 66445,
        "name": "STARLINK-34698",
        "group": "last-30-days",
        "lat": 38.236547044964446,
        "lon": 153.438668345831,
        "alt_km": 410.0618128735796,
        "timestamp": "2025-12-04T10:51:48.875527+00:00",
        "meta_object_name": "STARLINK-34698",
        "meta_object_id": "2025-259Z",
        "meta_epoch": "2025-12-04T04:00:03.000096",
        "meta_mean_motion": 15.50638565,
        "meta_eccentricity": 0.000159,
        "meta_inclination": 43.0004,
        "meta_ra_of_asc_node": 97.3784,
        "meta_arg_of_pericenter": 260.6761,
        "meta_mean_anomaly": 6.4467,
        "meta_ephemeris_type": 0,
        "meta_classification_type": "U",
        "meta_norad_cat_id": 66445,
        "meta_element_set_no": 999,
        "meta_rev_at_epoch": 479,
        "meta_bstar": -0.0026207,
        "meta_mean_motion_dot": -0.00151474,
        "meta_mean_motion_ddot": 0,
        "tle_line1": "1 66445U 25259Z   25338.16670139 -.00151474  00000+0 -26207-2 0  9994",
        "tle_line2": "2 66445  43.0004  97.3784 0001590 260.6761   6.4467 15.50638565  4790"
      },
      "geometry": {
        "type": "Point",
        "coordinates": [
          153.438668345831,
          38.236547044964446
        ]
      }
    },
    {
      "type": "Feature",
      "properties": {
        "norad_id": 66446,
        "name": "STARLINK-34986",
        "group": "last-30-days",
        "lat": 38.91292941132348,
        "lon": 155.73040458843073,
        "alt_km": 410.05171057768075,
        "timestamp": "2025-12-04T10:51:48.875539+00:00",
        "meta_object_name": "STARLINK-34986",
        "meta_object_id": "2025-259AA",
        "meta_epoch": "2025-12-04T04:00:03.000096",
        "meta_mean_motion": 15.50619077,
        "meta_eccentricity": 0.0001667,
        "meta_inclination": 43.0005,
        "meta_ra_of_asc_node": 97.3723,
        "meta_arg_of_pericenter": 256.2229,
        "meta_mean_anomaly": 12.8317,
        "meta_ephemeris_type": 0,
        "meta_classification_type": "U",
        "meta_norad_cat_id": 66446,
        "meta_element_set_no": 999,
        "meta_rev_at_epoch": 490,
        "meta_bstar": -0.0022087,
        "meta_mean_motion_dot": -0.00128007,
        "meta_mean_motion_ddot": 0,
        "tle_line1": "1 66446U 25259AA  25338.16670139 -.00128007  00000+0 -22087-2 0  9993",
        "tle_line2": "2 66446  43.0005  97.3723 0001667 256.2229  12.8317 15.50619077  4905"
      },
      "geometry": {
        "type": "Point",
        "coordinates": [
          155.73040458843073,
          38.91292941132348
        ]
      }
    },
    {
      "type": "Feature",
      "properties": {
        "norad_id": 66447,
        "name": "STARLINK-34851",
        "group": "last-30-days",
        "lat": 40.125401893090356,
        "lon": 160.44135331948652,
        "alt_km": 409.713307409982,
        "timestamp": "2025-12-04T10:51:48.875549+00:00",
        "meta_object_name": "STARLINK-34851",
        "meta_object_id": "2025-259AB",
        "meta_epoch": "2025-12-04T04:00:03.000096",
        "meta_mean_motion": 15.50631845,
        "meta_eccentricity": 0.0001444,
        "meta_inclination": 43.0005,
        "meta_ra_of_asc_node": 97.3634,
        "meta_arg_of_pericenter": 259.1425,
        "meta_mean_anomaly": 13.7374,
        "meta_ephemeris_type": 0,
        "meta_classification_type": "U",
        "meta_norad_cat_id": 66447,
        "meta_element_set_no": 999,
        "meta_rev_at_epoch": 479,
        "meta_bstar": -0.0025479,
        "meta_mean_motion_dot": -0.00147317,
        "meta_mean_motion_ddot": 0,
        "tle_line1": "1 66447U 25259AB  25338.16670139 -.00147317  00000+0 -25479-2 0  9997",
        "tle_line2": "2 66447  43.0005  97.3634 0001444 259.1425  13.7374 15.50631845  4797"
      },
      "geometry": {
        "type": "Point",
        "coordinates": [
          160.44135331948652,
          40.125401893090356
        ]
      }
    },
    {
      "type": "Feature",
      "properties": {
        "norad_id": 66448,
        "name": "STARLINK-35355",
        "group": "last-30-days",
        "lat": 40.6612580785885,
        "lon": 162.8703823592032,
        "alt_km": 409.63333326570046,
        "timestamp": "2025-12-04T10:51:48.875561+00:00",
        "meta_object_name": "STARLINK-35355",
        "meta_object_id": "2025-259AC",
        "meta_epoch": "2025-12-04T04:00:03.000096",
        "meta_mean_motion": 15.50645285,
        "meta_eccentricity": 0.0001494,
        "meta_inclination": 43.0006,
        "meta_ra_of_asc_node": 97.3584,
        "meta_arg_of_pericenter": 265.3608,
        "meta_mean_anomaly": 9.4352,
        "meta_ephemeris_type": 0,
        "meta_classification_type": "U",
        "meta_norad_cat_id": 66448,
        "meta_element_set_no": 999,
        "meta_rev_at_epoch": 490,
        "meta_bstar": -0.0027968,
        "meta_mean_motion_dot": -0.00161462,
        "meta_mean_motion_ddot": 0,
        "tle_line1": "1 66448U 25259AC  25338.16670139 -.00161462  00000+0 -27968-2 0  9990",
        "tle_line2": "2 66448  43.0006  97.3584 0001494 265.3608   9.4352 15.50645285  4904"
      },
      "geometry": {
        "type": "Point",
        "coordinates": [
          162.8703823592032,
          40.6612580785885
        ]
      }
    }
  ]
}